[{"OBJECT_NAME":"STARLINK-4626","OBJECT_ID":"2022-105AP","EPOCH":"2026-03-09T15:47:46.768416","MEAN_MOTION":15.0126201,"ECCENTRICITY":0.00022731,"INCLINATION":97.6025,"RA_OF_ASC_NODE":310.1773,"ARG_OF_PERICENTER":61.7447,"MEAN_ANOMALY":298.4007,"EPHEMERIS_TYPE":0,"CLASSIFICATION_TYPE":"U","NORAD_CAT_ID":53685,"ELEMENT_SET_NO":999,"REV_AT_EPOCH":19323,"BSTAR":-4.978778e-6,"MEAN_MOTION_DOT":-1.22e-6,"MEAN_MOTION_DDOT":0},{"OBJECT_NAME":"PSLV DEB","OBJECT_ID":"2001-049AH","EPOCH":"2026-03-09T23:39:21.767904","MEAN_MOTION":14.98984537,"ECCENTRICITY":0.00513683,"INCLINATION":98.1237,"RA_OF_ASC_NODE":87.2704,"ARG_OF_PERICENTER":48.4953,"MEAN_ANOMALY":9.0267,"EPHEMERIS_TYPE":0,"CLASSIFICATION_TYPE":"U","NORAD_CAT_ID":27089,"ELEMENT_SET_NO":999,"REV_AT_EPOCH":31452,"BSTAR":0.000212521,"MEAN_MOTION_DOT":2.577e-5,"MEAN_MOTION_DDOT":0}]
